[
    {
        "Altitude(m)": 622205.8675145786,
        "Argument of Periapsis(deg)": 0.0,
        "Eccentricity": 0.0,
        "Inclination(deg)": 60.0,
        "Latitude(deg)": -52.16243548092739,
        "Longitude(deg)": -172.2997244591911,
        "Mean Anomaly(deg)": 245.4545,
        "RAAN(deg)": 60.0,
        "Satellite Name": "Test1 279",
        "Satellite Number": 279,
        "Semi-Major Axis(m)": 6980739.136638005,
        "Time(s)": 0
    },
    {
        "Altitude(m)": 622344.774512725,
        "Argument of Periapsis(deg)": 0.00010418945913296404,
        "Eccentricity": 0.0,
        "Inclination(deg)": 60.0,
        "Latitude(deg)": -52.52001634036653,
        "Longitude(deg)": -171.51851362560265,
        "Mean Anomaly(deg)": 246.07460614546184,
        "RAAN(deg)": 59.99957995086026,
        "Satellite Name": "Test1 279",
        "Satellite Number": 279,
        "Semi-Major Axis(m)": 6980739.136638005,
        "Time(s)": 10
    }
]